NORAD_CAT_ID,OBJECT_NAME,OBJECT_TYPE,EPOCH,MEAN_MOTION,ECCENTRICITY,INCLINATION,RA_OF_ASC_NODE,ARG_OF_PERICENTER,MEAN_ANOMALY,BSTAR,MEAN_MOTION_DOT,MEAN_MOTION_DDOT,TLE_LINE0,TLE_LINE1,TLE_LINE2,SEMIMAJOR_AXIS,PERIOD,APOGEE,PERIGEE,DECAYED
52365.0,STARLINK-3874,PAYLOAD,2022-11-09 02:17:06,15.08887296,0.0002092,53.2151,250.6139,37.6001,322.5137,0.00095686,0.00014993,0.0,0 STARLINK-3874,1 52365U 22045AL  22313.09521763  .00014993  00000-0  95686-3 0  9991,2 52365  53.2151 250.6139 0002092  37.6001 322.5137 15.08887296 32255,6917.736,95.435,541.048,538.154,0.0
52365.0,STARLINK-3874,PAYLOAD,2022-11-09 05:27:53,15.08850745,0.0002318,53.2153,250.0196,34.5509,325.5634,-0.00042053,-6.977e-05,0.0,0 STARLINK-3874,1 52365U 22045AL  22313.22770460 -.00006977  00000-0 -42053-3 0  9991,2 52365  53.2153 250.0196 0002318  34.5509 325.5634 15.08850745 32270,6917.848000000001,95.437,541.316,538.109,0.0
52365.0,STARLINK-3874,PAYLOAD,2022-11-09 19:46:21,15.08844826,0.0002126,53.2149,247.3427,40.0807,320.0342,-8.2235e-05,-1.597e-05,0.0,0 STARLINK-3874,1 52365U 22045AL  22313.82386246 -.00001597  00000-0 -82235-4 0  9992,2 52365  53.2149 247.3427 0002126  40.0807 320.0342 15.08844826 32360,6917.866,95.437,541.201,538.26,0.0
52365.0,STARLINK-3874,PAYLOAD,2022-11-10 05:18:40,15.08833032,0.0002154,53.2151,245.5588,37.6373,322.4770000000001,0.00014934,2.089e-05,0.0,0 STARLINK-3874,1 52365U 22045AL  22314.22130727  .00002089  00000-0  14934-3 0  9993,2 52365  53.2151 245.5588 0002154  37.6373 322.4770 15.08833032 32427,6917.901999999999,95.438,541.257,538.2769999999998,0.0
52365.0,STARLINK-3874,PAYLOAD,2022-11-11 05:09:29,15.08819048,0.0002232,53.2153,241.0992,29.7202,330.3916,2.6087e-05,1.27e-06,0.0,0 STARLINK-3874,1 52365U 22045AL  22315.21492673  .00000127  00000-0  26087-4 0  9998,2 52365  53.2153 241.0992 0002232  29.7202 330.3916 15.08819048 32576,6917.944,95.439,541.354,538.265,0.0
52365.0,STARLINK-3874,PAYLOAD,2022-11-12 05:00:16,15.0885929,0.0002207,53.2154,236.6393,31.0786,329.0336,0.0012835,0.00020209,0.0,0 STARLINK-3874,1 52365U 22045AL  22316.20852842  .00020209  00000-0  12835-2 0  9993,2 52365  53.2154 236.6393 0002207  31.0786 329.0336 15.08859290 32728,6917.821,95.436,541.2130000000002,538.16,0.0
52365.0,STARLINK-3874,PAYLOAD,2022-11-13 04:51:02,15.08855362,0.0002103,53.2152,232.1788,36.1795,323.9339,0.00025482,3.771e-05,0.0,0 STARLINK-3874,1 52365U 22045AL  22317.20211661  .00003771  00000-0  25482-3 0  9990,2 52365  53.2152 232.1788 0002103  36.1795 323.9339 15.08855362 32874,6917.833000000001,95.437,541.153,538.244,0.0
52365.0,STARLINK-3874,PAYLOAD,2022-11-13 19:09:31,15.08838368,0.0002091,53.2151,229.5015,40.5912,319.5236,-0.00025275,-4.308e-05,0.0,0 STARLINK-3874,1 52365U 22045AL  22317.79827989 -.00004308  00000-0 -25275-3 0  9999,2 52365  53.2151 229.5015 0002091  40.5912 319.5236 15.08838368 32966,6917.885,95.438,541.197,538.304,0.0
52365.0,STARLINK-3874,PAYLOAD,2022-11-14 03:06:27,15.08829415,0.0002152,53.2148,228.0149,35.3666,324.7469,-0.0003022,-5.093e-05,0.0,0 STARLINK-3874,1 52365U 22045AL  22318.12948541 -.00005093  00000-0 -30220-3 0  9993,2 52365  53.2148 228.0149 0002152  35.3666 324.7469 15.08829415 33016,6917.913000000001,95.438,541.266,538.289,0.0
52365.0,STARLINK-3874,PAYLOAD,2022-11-14 11:03:23,15.088301,0.0002074,53.2148,226.5289,35.6283,324.4847,-0.00018768,-3.273e-05,0.0,0 STARLINK-3874,1 52365U 22045AL  22318.46068817 -.00003273  00000-0 -18768-3 0  9990,2 52365  53.2148 226.5289 0002074  35.6283 324.4847 15.08830100 33060,6917.911,95.438,541.21,538.341,0.0
52365.0,STARLINK-3874,PAYLOAD,2022-11-15 04:32:38,15.08842436,0.0002235,53.2146,223.2568,37.4904,322.6244,0.00046351,7.097e-05,0.0,0 STARLINK-3874,1 52365U 22045AL  22319.18933025  .00007097  00000-0  46351-3 0  9997,2 52365  53.2146 223.2568 0002235  37.4904 322.6244 15.08842436 33179,6917.873000000001,95.437,541.284,538.192,0.0
52365.0,STARLINK-3874,PAYLOAD,2022-11-15 10:54:10,15.08848845,0.0002291,53.2145,222.0679,37.9953,322.1201,0.00076475,0.00011907,0.0,0 STARLINK-3874,1 52365U 22045AL  22319.45429075  .00011907  00000-0  76475-3 0  9997,2 52365  53.2145 222.0679 0002291  37.9953 322.1201 15.08848845 33212,6917.853,95.437,541.303,538.133,0.0
52365.0,STARLINK-3874,PAYLOAD,2022-11-16 10:44:57,15.08852365,0.0002334,53.2144,217.6073,39.2768,320.8393,0.00032993,4.968e-05,0.0,0 STARLINK-3874,1 52365U 22045AL  22320.44788627  .00004968  00000-0  32993-3 0  9995,2 52365  53.2144 217.6073 0002334  39.2768 320.8393 15.08852365 33361,6917.843000000003,95.437,541.322,538.0930000000002,0.0
52365.0,STARLINK-3874,PAYLOAD,2022-11-16 17:06:30,15.08843751,0.0002334,53.214,216.418,39.6939,320.4224,0.0001032,1.355e-05,0.0,0 STARLINK-3874,1 52365U 22045AL  22320.71284840  .00001355  00000-0  10320-3 0  9990,2 52365  53.2140 216.4180 0002334  39.6939 320.4224 15.08843751 33400,6917.869000000002,95.437,541.349,538.119,0.0
52365.0,STARLINK-3874,PAYLOAD,2022-11-17 02:38:49,15.08839959,0.0002246,53.2148,214.6335,40.2919,319.8239,1.154e-05,-1.05e-06,0.0,0 STARLINK-3874,1 52365U 22045AL  22321.11028992 -.00000105  00000-0  11540-4 0  9998,2 52365  53.2148 214.6335 0002246  40.2919 319.8239 15.08839959 33467,6917.880999999999,95.438,541.299,538.192,0.0
52365.0,STARLINK-3874,PAYLOAD,2022-11-18 02:29:35,15.08844624,0.0002289,53.2149,210.1744,35.1909,324.9234,0.00013688,1.891e-05,0.0,0 STARLINK-3874,1 52365U 22045AL  22322.10388812  .00001891  00000-0  13688-3 0  9994,2 52365  53.2149 210.1744 0002289  35.1909 324.9234 15.08844624 33616,6917.866,95.437,541.315,538.148,0.0
52365.0,STARLINK-3874,PAYLOAD,2022-11-18 16:48:04,15.08839628,0.0002718,53.2154,207.4989,39.1313,320.9876,0.00010785,1.428e-05,0.0,0 STARLINK-3874,1 52365U 22045AL  22322.70005158  .00001428  00000-0  10785-3 0  9990,2 52365  53.2154 207.4989 0002718  39.1313 320.9876 15.08839628 33708,6917.882,95.438,541.627,537.866,0.0
52365.0,STARLINK-3874,PAYLOAD,2022-11-19 02:20:22,15.08846292,0.0002446,53.2134,205.7135,43.3216,316.7968,0.00019486,2.815e-05,0.0,0 STARLINK-3874,1 52365U 22045AL  22323.09748814  .00002815  00000-0  19486-3 0  9994,2 52365  53.2134 205.7135 0002446  43.3216 316.7968 15.08846292 33763,6917.861,95.437,541.418,538.034,0.0
52365.0,STARLINK-3874,PAYLOAD,2022-11-20 02:11:10,15.08836895,0.0002504,53.2157,201.2528,44.3682,315.751,9.5045e-06,-1.37e-06,0.0,0 STARLINK-3874,1 52365U 22045AL  22324.09109245 -.00000137  00000-0  95045-5 0  9997,2 52365  53.2157 201.2528 0002504  44.3682 315.7510 15.08836895 33915,6917.89,95.438,541.487,538.023,0.0
52365.0,STARLINK-3874,PAYLOAD,2022-11-20 19:40:25,15.08833697,0.0002409,53.2154,197.9817,43.4971,316.621,-4.7282e-05,-1.041e-05,0.0,0 STARLINK-3874,1 52365U 22045AL  22324.81973701 -.00001041  00000-0 -47282-4 0  9998,2 52365  53.2154 197.9817 0002409  43.4971 316.6210 15.08833697 34026,6917.9,95.438,541.431,538.0980000000002,0.0
52365.0,STARLINK-3874,PAYLOAD,2022-11-21 02:01:57,15.08837808,0.0002424,53.2158,196.7922,42.0611,318.0567,3.0568e-05,1.98e-06,0.0,0 STARLINK-3874,1 52365U 22045AL  22325.08469815  .00000198  00000-0  30568-4 0  9993,2 52365  53.2158 196.7922 0002424  42.0611 318.0567 15.08837808 34060,6917.887,95.438,541.429,538.075,0.0
52365.0,STARLINK-3874,PAYLOAD,2022-11-21 16:20:25,15.0883602,0.000235,53.2155,194.1157,41.9021,318.215,0.00020052,2.904e-05,0.0,0 STARLINK-3874,1 52365U 22045AL  22325.68085468  .00002904  00000-0  20052-3 0  9990,2 52365  53.2155 194.1157 0002350  41.9021 318.2150 15.08836020 34155,6917.893,95.438,541.383,538.132,0.0
52365.0,STARLINK-3874,PAYLOAD,2022-11-21 19:31:11,15.08839415,0.0002328,53.2157,193.5209,43.7128,316.4048,0.00023103,3.39e-05,0.0,0 STARLINK-3874,1 52365U 22045AL  22325.81333269  .00003390  00000-0  23103-3 0  9990,2 52365  53.2157 193.5209 0002328  43.7128 316.4048 15.08839415 34170,6917.882,95.438,541.3580000000002,538.137,0.0
52365.0,STARLINK-3874,PAYLOAD,2022-11-22 08:14:17,15.08839785,0.0002311,53.2142,191.1423,41.2357,318.881,0.00018615,2.676e-05,0.0,0 STARLINK-3874,1 52365U 22045AL  22326.34325569  .00002676  00000-0  18615-3 0  9991,2 52365  53.2142 191.1423 0002311  41.2357 318.8810 15.08839785 34257,6917.880999999999,95.438,541.345,538.1469999999998,0.0
52365.0,STARLINK-3874,PAYLOAD,2022-11-22 20:57:22,15.08839191,0.0002427,53.2161,188.7637,47.4031,312.7166,9.0414e-05,1.151e-05,0.0,0 STARLINK-3874,1 52365U 22045AL  22326.87317674  .00001151  00000-0  90414-4 0  9992,2 52365  53.2161 188.7637 0002427  47.4031 312.7166 15.08839191 34339,6917.8830000000025,95.438,541.427,538.069,0.0
52365.0,STARLINK-3874,PAYLOAD,2022-11-23 01:43:31,15.08840646,0.000246,53.2157,187.871,46.5236,313.596,7.4009e-05,8.900000000000001e-06,0.0,0 STARLINK-3874,1 52365U 22045AL  22327.07189588  .00000890  00000-0  74009-4 0  9997,2 52365  53.2157 187.8710 0002460  46.5236 313.5960 15.08840646 34361,6917.878000000002,95.438,541.445,538.0419999999998,0.0
52365.0,STARLINK-3874,PAYLOAD,2022-11-23 08:05:04,15.08844291,0.0002449,53.2156,186.6819,46.4109,313.7086,9.4025e-05,1.209e-05,0.0,0 STARLINK-3874,1 52365U 22045AL  22327.33685381  .00001209  00000-0  94025-4 0  9993,2 52365  53.2156 186.6819 0002449  46.4109 313.7086 15.08844291 34408,6917.8669999999975,95.437,541.4259999999998,538.038,0.0
52365.0,STARLINK-3874,PAYLOAD,2022-11-23 20:48:08,15.08851055,0.000253,53.2156,184.3027,45.5598,314.5601,0.00010246,1.343e-05,0.0,0 STARLINK-3874,1 52365U 22045AL  22327.86676892  .00001343  00000-0  10246-3 0  9999,2 52365  53.2156 184.3027 0002530  45.5598 314.5601 15.08851055 34483,6917.847,95.437,541.462,537.961,0.0
52365.0,STARLINK-3874,PAYLOAD,2022-11-23 23:58:55,15.08851128,0.000251,53.2158,183.7082,46.8997,313.2205,0.00013951,1.933e-05,0.0,0 STARLINK-3874,1 52365U 22045AL  22327.99924850  .00001933  00000-0  13951-3 0  9994,2 52365  53.2158 183.7082 0002510  46.8997 313.2205 15.08851128 34504,6917.846,95.437,541.448,537.975,0.0
